104P/Kowal,e,10.2674,235.4538,200.6681,3.260367,0.1674189,0.63827720,348.3996,01/17.0/2016,2000,g 12.5,4.0
# From MPC 94676
105P/Singer Brewster,e,9.1764,192.4290,46.5128,3.466740,0.1526941,0.40973488,216.9526,01/17.0/2016,2000,g 11.5,6.0
# From MPC 92276
106P/Schuster,e,20.1764,50.3784,355.9835,3.755450,0.1354288,0.58919517,73.8973,01/17.0/2016,2000,g 14.0,4.8
# From MPC 94676
107P/Wilson-Harrington,e,2.7683,269.1941,92.6603,2.639133,0.2298857,0.62702508,162.8270,01/17.0/2016,2000,g 16.0,2.0
# From MPC 89313
108P/Ciffreo,e,13.1087,53.5114,358.2096,3.743989,0.1360512,0.54415034,61.9437,01/17.0/2016,2000,g  8.0,12.0
# From ICA 105, 420
109P/Swift-Tuttle,e,112.9889,139.8429,153.1236,26.12981,0.0073790,0.96372518,62.2743,01/17.0/2016,2000,g  4.5,6.0
# From MPC 91618
110P/Hartley,e,11.6829,287.6509,167.6625,3.612340,0.1435559,0.31531238,56.7886,01/17.0/2016,2000,g  1.0,12.0
# From MPC 75718
111P/Helin-Roman-Crockett,e,4.2285,89.7671,1.9540,4.139103,0.1170428,0.10560583,127.8177,01/17.0/2016,2000,g  5.0,8.0
# From MPC 69910
112P/Urata-Niijima,e,24.2045,31.9097,21.3919,3.530267,0.1485911,0.58781336,139.2514,01/17.0/2016,2000,g 14.0,6.0
# From MPC 92984
113P/Spitaler,e,5.7764,14.3773,50.0817,3.684839,0.1393402,0.42489585,37.3560,01/17.0/2016,2000,g 13.5,4.0
# From MPC 82722
114P/Wiseman-Skiff,e,18.2809,271.0616,172.8728,3.543701,0.1477470,0.55483510,144.5626,01/17.0/2016,2000,g 11.5,6.0
# From MPC 76027
115P/Maury,e,11.6714,176.0494,121.0883,4.271740,0.1116341,0.51771187,174.9113,01/17.0/2016,2000,g 10.5,6.0
# From MPC 94284
116P/Wild,e,3.6086,20.9886,173.3141,3.484978,0.1514970,0.37242250,0.8309,01/17.0/2016,2000,g  2.5,10.0
# From MPC 95735
117P/Helin-Roman-Alu,e,8.6984,58.8770,222.5795,4.094830,0.1189461,0.25399394,78.6613,01/17.0/2016,2000,g  2.5,8.0
# From MPC 95735
118P/Shoemaker-Levy,e,8.5143,151.7276,302.3271,3.462730,0.1529594,0.42817447,336.7592,01/17.0/2016,2000,g 12.0,4.0
# From MPC 84628
119P/Parker-Hartley,e,5.1932,243.1133,182.1917,4.293361,0.1107919,0.29766578,72.3353,01/17.0/2016,2000,g  3.5,8.0
# From MPC 80901
120P/Mueller,e,8.8831,3.8738,29.2789,4.105375,0.1184881,0.34649155,125.4487,01/17.0/2016,2000,g 12.0,4.0
# From MPC 75718
121P/Shoemaker-Holt,e,20.1531,94.1545,11.6433,4.594744,0.1000719,0.18346049,86.8248,01/17.0/2016,2000,g  6.5,8.0
# From MPC 75718
122P/de Vico,e,85.2274,79.5855,13.0431,17.66528,0.0132747,0.96265379,98.2377,01/17.0/2016,2000,g  7.5,5.2
# From MPC 79345
123P/West-Hartley,e,15.3556,46.5182,102.9386,3.860362,0.1299457,0.44928228,215.1801,01/17.0/2016,2000,g  4.0,10.0
# From MPC 87068
124P/Mrkos,e,31.5324,0.4023,183.7644,3.318081,0.1630698,0.50401882,105.5476,01/17.0/2016,2000,g 13.5,2.8
# From MPC 94676
125P/Spacewatch,e,9.9881,153.1962,87.1398,3.125349,0.1783841,0.51286431,189.7654,01/17.0/2016,2000,g 13.0,6.0
# From MPC 66205
126P/IRAS,e,45.7773,357.8195,356.6583,5.642112,0.0735430,0.69516574,158.7947,01/17.0/2016,2000,g  6.0,8.0
# From MPC 84321
127P/Holt-Olmstead,e,14.3025,13.6495,6.7076,3.450312,0.1537859,0.36066885,350.6481,01/17.0/2016,2000,g 11.0,6.0
# From MPC 75719
128P-B/Shoemaker-Holt,e,4.3638,214.2946,210.5805,4.503476,0.1031294,0.32148210,322.8970,01/17.0/2016,2000,g  8.5,4.0
# From MPC 82322
129P/Shoemaker-Levy,e,3.4443,184.8953,308.9674,4.276803,0.1114359,0.08496307,79.0398,01/17.0/2016,2000,g 11.0,4.0
# From MPC 78188
130P/McNaught-Hughes,e,6.0334,71.5146,244.0688,3.399579,0.1572412,0.46321099,244.8704,01/17.0/2016,2000,g 10.0,6.0
# From MPC 76027
131P/Mueller,e,7.3545,214.1968,179.1591,3.678744,0.1396866,0.34275085,205.7928,01/17.0/2016,2000,g 11.0,4.0
# From MPC 92985
132P/Helin-Roman-Alu,e,5.8382,178.1557,221.2916,4.089298,0.1191875,0.53614037,71.9099,01/17.0/2016,2000,g 11.0,6.0
# From MPC 94676
133P/Elst-Pizarro,e,1.3873,160.1385,131.9700,3.159988,0.1754592,0.16060789,188.4085,01/17.0/2016,2000,g 15.4,2.0
# From MPC 89012
134P/Kowal-Vavrova,e,4.3490,202.0961,18.6327,6.239563,0.0632372,0.58789576,38.2802,01/17.0/2016,2000,g 11.5,4.0
# From MPC 92985
135P/Shoemaker-Levy,e,6.0617,213.0886,21.9890,3.803631,0.1328637,0.29549521,58.6272,01/17.0/2016,2000,g  7.0,8.0
# From MPC 84321
136P/Mueller,e,9.4161,137.4531,225.1846,4.203147,0.1143779,0.29122554,344.5270,01/17.0/2016,2000,g 11.0,4.0
# From MPC 75719
137P/Shoemaker-Levy,e,4.8502,233.0739,140.9819,4.518005,0.1026323,0.57204313,250.9988,01/17.0/2016,2000,g 11.0,4.0
# From MPC 65938
138P/Shoemaker-Levy,e,10.0843,309.3740,95.6009,3.622222,0.1429689,0.52960648,188.0883,01/17.0/2016,2000,g 15.0,6.0
# From MPC 89012
139P/Vaisala-Oterma,e,2.3326,242.2432,166.1672,4.528965,0.1022600,0.24645611,288.9731,01/17.0/2016,2000,g  9.5,4.0
# From MPC 92985
140P/Bowell-Skiff,e,3.8211,343.3940,172.9258,6.449291,0.0601778,0.69179735,9.7131,01/17.0/2016,2000,g 11.5,6.0
# From MPC 94284
141P/Machholz,e,12.8089,246.0062,149.5053,3.022249,0.1875896,0.74820584,27.1925,01/17.0/2016,2000,g 12.0,12.0
# From MPC 71683
142P/Ge-Wang,e,12.3487,176.4719,175.2109,4.949289,0.0895138,0.49967028,184.7217,01/17.0/2016,2000,g  8.5,6.0
# From MPC 94676
143P/Kowal-Mrkos,e,4.6941,245.3049,320.8252,4.294645,0.1107422,0.40986194,266.8183,01/17.0/2016,2000,g 13.5,2.0
# From MPC 84321
144P/Kushida,e,4.1147,245.4935,216.1417,3.857936,0.1300683,0.62896377,330.4799,01/17.0/2016,2000,g  8.5,8.0
# From MPC 75720
145P/Shoemaker-Levy,e,11.2603,26.8193,10.4109,4.143888,0.1168401,0.54073459,290.7159,01/17.0/2016,2000,g 13.5,4.0
# From MPC 75720
146P/Shoemaker-LINEAR,e,23.0734,53.4570,316.9864,4.039628,0.1213925,0.64598887,339.9526,01/17.0/2016,2000,g 15.0,4.0
# From MPC 75720
147P/Kushida-Muramatsu,e,2.3689,93.7310,347.0636,3.800126,0.1330476,0.27724042,354.4352,01/17.0/2016,2000,g 14.0,4.0
# From MPC 89730
148P/Anderson-LINEAR,e,3.6817,89.7657,6.6975,3.675461,0.1398738,0.53972791,30.3843,01/17.0/2016,2000,g 16.0,2.0
# From MPC 75720
149P/Mueller,e,29.7653,145.2658,43.5926,4.321557,0.1097094,0.38971251,236.4059,01/17.0/2016,2000,g  8.0,8.0
# From MPC 75720
150P/LONEOS,e,18.5070,272.4296,245.6780,3.883116,0.1288052,0.54682610,335.5339,01/17.0/2016,2000,g 13.5,4.0
# From MPC 95214
151P/Helin,e,4.7196,143.1555,216.2606,5.780880,0.0709109,0.57208302,7.1579,01/17.0/2016,2000,g 10.0,6.0
# From MPC 79346
152P/Helin-Lawrence,e,9.8700,91.8842,163.5341,4.491185,0.1035530,0.30763305,133.3180,01/17.0/2016,2000,g 11.5,4.0
# From MPC 46101
153P/Ikeya-Zhang,e,28.1040,93.4020,34.6544,51.18629,0.0026914,0.99015301,0.0000,03/22.6309/2002,2000,g  7.0,4.0
# From MPC 87068
154P/Brewington,e,17.9231,343.4318,48.2892,4.848123,0.0923302,0.67468720,70.5591,01/17.0/2016,2000,g  2.5,12.0
# From MPC 75720
155P/Shoemaker,e,6.4011,97.2656,14.7062,6.583832,0.0583426,0.72723226,278.4707,01/17.0/2016,2000,g 10.0,4.8
# From MPC 92985
156P/Russell-LINEAR,e,20.8348,38.7559,357.8957,3.592660,0.1447371,0.56032900,92.6360,01/17.0/2016,2000,g 15.5,2.0
# From MPC 95214
157P/Tritton,e,7.2850,300.0017,148.8892,3.408848,0.1566003,0.60160695,337.2380,01/17.0/2016,2000,g 10.0,4.0
# From MPC 76027
158P/Kowal-LINEAR,e,7.9065,137.2749,239.8023,4.737674,0.0955777,0.03029489,108.9758,01/17.0/2016,2000,g  9.0,4.0
# From MPC 75721
159P/LONEOS,e,23.4600,55.0459,4.8646,5.860609,0.0694688,0.38186076,300.4431,01/17.0/2016,2000,g 10.0,4.0
# From MPC 80901
160P/LINEAR,e,17.1664,335.3986,12.0688,3.727951,0.1369300,0.54310682,166.2618,01/17.0/2016,2000,g 15.5,2.0
# From MPC 75721
161P/Hartley-IRAS,e,95.5793,1.2321,46.9615,7.720241,0.0459471,0.83569484,177.5488,01/17.0/2016,2000,g  8.5,6.0
# From MPC 92985
162P/Siding Spring,e,27.7863,31.2102,356.4232,3.056533,0.1844422,0.59513553,34.8598,01/17.0/2016,2000,g 12.0,4.0
# From MPC 78188
163P/NEAT,e,12.7161,102.1102,349.8046,3.766812,0.1348165,0.45255727,185.2850,01/17.0/2016,2000,g 14.5,4.0
# From MPC 94676
164P/Christensen,e,16.2587,88.3122,325.9908,3.658747,0.1408333,0.53981304,238.1171,01/17.0/2016,2000,g 11.0,4.0
# From MPC 75721
165P/LINEAR,e,15.9043,0.5084,126.3432,17.89386,0.0130211,0.61819413,74.1116,01/17.0/2016,2000,g 11.5,2.0
# From MPC 75722
166P/NEAT,e,15.3608,64.4702,322.2035,13.90109,0.0190165,0.37977724,95.0475,01/17.0/2016,2000,g  5.5,4.0
# From MPC 75722
167P/CINEOS,e,19.1034,295.8521,343.5299,16.15292,0.0151820,0.27135341,81.9895,01/17.0/2016,2000,g  9.5,2.0
# From MPC 82322
168P/Hergenrother,e,22.0044,356.4024,13.7166,3.611569,0.1436019,0.61162843,172.5720,01/17.0/2016,2000,g 15.5,4.0
# From MPC 94676
169P/NEAT,e,11.2981,176.1192,218.0173,2.604265,0.2345181,0.76703419,164.3453,01/17.0/2016,2000,g 16.0,2.0
# From MPC 89012
170P/Christensen,e,10.1278,142.9199,225.8223,4.197655,0.1146025,0.30413770,55.7109,01/17.0/2016,2000,g 12.0,4.0
# From MPC 79024
171P/Spahr,e,21.9462,101.7131,347.2138,3.555866,0.1469894,0.50241675,199.4154,01/17.0/2016,2000,g 13.5,4.0
# From MPC 93588
172P/Yeung,e,11.2182,30.9351,208.8315,4.223213,0.1135637,0.20988589,312.3785,01/17.0/2016,2000,g 13.0,4.0
# From MPC 75722
173P/Mueller,e,16.5042,100.4732,29.5924,5.690375,0.0726094,0.26201999,203.0947,01/17.0/2016,2000,g  7.5,4.0
# From MPC 92985
174P/Echeclus,e,4.3445,173.3349,162.8883,10.68029,0.0282377,0.45537064,7.6242,01/17.0/2016,2000,g  9.4,2.0
# From MPC 84321
175P/Hergenrother,e,6.0776,123.5833,56.0490,3.429465,0.1551903,0.43260278,150.2157,01/17.0/2016,2000,g 14.0,4.0
# From MPC 88331
176P/LINEAR,e,0.2348,345.9616,35.4587,3.195155,0.1725704,0.19275577,287.4366,01/17.0/2016,2000,g 15.1,2.0
# From MPC 75723
177P/Barnard,e,31.1452,272.0233,60.6695,24.42215,0.0081664,0.95407552,28.0436,01/17.0/2016,2000,g 15.0,4.0
# From MPC 87068
178P/Hug-Bell,e,10.9692,103.4672,296.6896,3.661742,0.1406606,0.47475078,127.7273,01/17.0/2016,2000,g 13.5,4.0
# From MPC 75723
179P/Jedicke,e,19.8660,115.5676,296.3415,5.942893,0.0680311,0.30578013,202.0445,01/17.0/2016,2000,g  2.5,8.0
# From MPC 92276
180P/NEAT,e,16.8698,84.5782,94.8729,3.859807,0.1299738,0.35506570,4.5872,01/17.0/2016,2000,g 11.0,4.0
# From MPC 89012
181P/Shoemaker-Levy,e,17.0995,36.8458,334.7541,3.852821,0.1303274,0.70781391,76.2723,01/17.0/2016,2000,g 11.5,4.0
# From MPC 88331
